[
    {
        "Altitude(m)": 622200.0907721487,
        "Argument of Periapsis(deg)": 0.0,
        "Eccentricity": 0.0,
        "Inclination(deg)": 60.0,
        "Latitude(deg)": -52.162492884193654,
        "Longitude(deg)": 42.360868420714155,
        "Mean Anomaly(deg)": -65.45449999999995,
        "RAAN(deg)": 190.0,
        "Satellite Name": "Test1 854",
        "Satellite Number": 854,
        "Semi-Major Axis(m)": 6980739.136638005,
        "Time(s)": 0
    },
    {
        "Altitude(m)": 622058.2580310914,
        "Argument of Periapsis(deg)": 0.00010418945913296404,
        "Eccentricity": 0.0,
        "Inclination(deg)": 60.0,
        "Latitude(deg)": -51.799241325779576,
        "Longitude(deg)": 43.128924020942605,
        "Mean Anomaly(deg)": -64.8343938545381,
        "RAAN(deg)": 189.99957995086027,
        "Satellite Name": "Test1 854",
        "Satellite Number": 854,
        "Semi-Major Axis(m)": 6980739.136638005,
        "Time(s)": 10
    },
    {
        "Altitude(m)": 621913.6920125897,
        "Argument of Periapsis(deg)": 0.0002083789182659281,
        "Eccentricity": 0.0,
        "Inclination(deg)": 60.0,
        "Latitude(deg)": -51.43047821905317,
        "Longitude(deg)": 43.88400086974438,
        "Mean Anomaly(deg)": -64.21428770907637,
        "RAAN(deg)": 189.99915990172053,
        "Satellite Name": "Test1 854",
        "Satellite Number": 854,
        "Semi-Major Axis(m)": 6980739.136638005,
        "Time(s)": 20
    },
    {
        "Altitude(m)": 621766.4491562167,
        "Argument of Periapsis(deg)": 0.00031256837739889213,
        "Eccentricity": 0.0,
        "Inclination(deg)": 60.0,
        "Latitude(deg)": -51.05636068418307,
        "Longitude(deg)": 44.62628866628548,
        "Mean Anomaly(deg)": -63.59418156361453,
        "RAAN(deg)": 189.9987398525808,
        "Satellite Name": "Test1 854",
        "Satellite Number": 854,
        "Semi-Major Axis(m)": 6980739.136638005,
        "Time(s)": 30
    },
    {
        "Altitude(m)": 621616.5869179459,
        "Argument of Periapsis(deg)": 0.0004167578365318562,
        "Eccentricity": 0.0,
        "Inclination(deg)": 60.0,
        "Latitude(deg)": -50.67704215079267,
        "Longitude(deg)": 45.355984875015274,
        "Mean Anomaly(deg)": -62.9740754181527,
        "RAAN(deg)": 189.99831980344103,
        "Satellite Name": "Test1 854",
        "Satellite Number": 854,
        "Semi-Major Axis(m)": 6980739.136638005,
        "Time(s)": 40
    },
    {
        "Altitude(m)": 621464.1637455613,
        "Argument of Periapsis(deg)": 0.0005209472956648203,
        "Eccentricity": 0.0,
        "Inclination(deg)": 60.0,
        "Latitude(deg)": -50.29267233096,
        "Longitude(deg)": 46.07329267584153,
        "Mean Anomaly(deg)": -62.35396927269085,
        "RAAN(deg)": 189.9978997543013,
        "Satellite Name": "Test1 854",
        "Satellite Number": 854,
        "Semi-Major Axis(m)": 6980739.136638005,
        "Time(s)": 50
    },
    {
        "Altitude(m)": 621309.2390535817,
        "Argument of Periapsis(deg)": 0.0006251367547977843,
        "Eccentricity": 0.0,
        "Inclination(deg)": 60.0,
        "Latitude(deg)": -49.90339720676967,
        "Longitude(deg)": 46.778420496523225,
        "Mean Anomaly(deg)": -61.73386312722902,
        "RAAN(deg)": 189.99747970516157,
        "Satellite Name": "Test1 854",
        "Satellite Number": 854,
        "Semi-Major Axis(m)": 6980739.136638005,
        "Time(s)": 60
    },
    {
        "Altitude(m)": 621151.8731977997,
        "Argument of Periapsis(deg)": 0.0007293262139307483,
        "Eccentricity": 0.0,
        "Inclination(deg)": 60.0,
        "Latitude(deg)": -49.50935903101622,
        "Longitude(deg)": 47.47158161300496,
        "Mean Anomaly(deg)": -61.11375698176716,
        "RAAN(deg)": 189.99705965602183,
        "Satellite Name": "Test1 854",
        "Satellite Number": 854,
        "Semi-Major Axis(m)": 6980739.136638005,
        "Time(s)": 70
    },
    {
        "Altitude(m)": 620992.1274493701,
        "Argument of Periapsis(deg)": 0.0008335156730637124,
        "Eccentricity": 0.0,
        "Inclination(deg)": 60.0,
        "Latitude(deg)": -49.11069633972821,
        "Longitude(deg)": 48.152992302999245,
        "Mean Anomaly(deg)": -60.493650836305335,
        "RAAN(deg)": 189.99663960688207,
        "Satellite Name": "Test1 854",
        "Satellite Number": 854,
        "Semi-Major Axis(m)": 6980739.136638005,
        "Time(s)": 80
    },
    {
        "Altitude(m)": 620830.0639684941,
        "Argument of Periapsis(deg)": 0.0009377051321966765,
        "Eccentricity": 0.0,
        "Inclination(deg)": 60.0,
        "Latitude(deg)": -48.70754397524885,
        "Longitude(deg)": 48.82287157640253,
        "Mean Anomaly(deg)": -59.87354469084348,
        "RAAN(deg)": 189.99621955774234,
        "Satellite Name": "Test1 854",
        "Satellite Number": 854,
        "Semi-Major Axis(m)": 6980739.136638005,
        "Time(s)": 90
    },
    {
        "Altitude(m)": 620665.7457776953,
        "Argument of Periapsis(deg)": 0.0010418945913296407,
        "Eccentricity": 0.0,
        "Inclination(deg)": 60.0,
        "Latitude(deg)": -48.300033118692205,
        "Longitude(deg)": 49.48144096725714,
        "Mean Anomaly(deg)": -59.253438545381655,
        "RAAN(deg)": 189.99579950860257,
        "Satellite Name": "Test1 854",
        "Satellite Number": 854,
        "Semi-Major Axis(m)": 6980739.136638005,
        "Time(s)": 100
    },
    {
        "Altitude(m)": 620499.2367347103,
        "Argument of Periapsis(deg)": 0.0011460840504626045,
        "Eccentricity": 0.0,
        "Inclination(deg)": 60.0,
        "Latitude(deg)": -47.888291330669766,
        "Longitude(deg)": 50.12892287177041,
        "Mean Anomaly(deg)": -58.6333323999198,
        "RAAN(deg)": 189.9953794594628,
        "Satellite Name": "Test1 854",
        "Satellite Number": 854,
        "Semi-Major Axis(m)": 6980739.136638005,
        "Time(s)": 110
    },
    {
        "Altitude(m)": 620330.6015049777,
        "Argument of Periapsis(deg)": 0.0012502735095955685,
        "Eccentricity": 0.0,
        "Inclination(deg)": 60.0,
        "Latitude(deg)": -47.472442599252105,
        "Longitude(deg)": 50.76554045537865,
        "Mean Anomaly(deg)": -58.013226254457976,
        "RAAN(deg)": 189.9949594103231,
        "Satellite Name": "Test1 854",
        "Satellite Number": 854,
        "Semi-Major Axis(m)": 6980739.136638005,
        "Time(s)": 120
    },
    {
        "Altitude(m)": 620159.9055337892,
        "Argument of Periapsis(deg)": 0.0013544629687285324,
        "Eccentricity": 0.0,
        "Inclination(deg)": 60.0,
        "Latitude(deg)": -47.05260739421294,
        "Longitude(deg)": 51.39151761313622,
        "Mean Anomaly(deg)": -57.39312010899622,
        "RAAN(deg)": 189.99453936118337,
        "Satellite Name": "Test1 854",
        "Satellite Number": 854,
        "Semi-Major Axis(m)": 6980739.136638005,
        "Time(s)": 130
    },
    {
        "Altitude(m)": 619987.2150180528,
        "Argument of Periapsis(deg)": 0.0014586524278614966,
        "Eccentricity": 0.0,
        "Inclination(deg)": 60.0,
        "Latitude(deg)": -46.62890272667504,
        "Longitude(deg)": 52.00707746766356,
        "Mean Anomaly(deg)": -56.7730139635343,
        "RAAN(deg)": 189.9941193120436,
        "Satellite Name": "Test1 854",
        "Satellite Number": 854,
        "Semi-Major Axis(m)": 6980739.136638005,
        "Time(s)": 140
    },
    {
        "Altitude(m)": 619812.5968777278,
        "Argument of Periapsis(deg)": 0.0015628418869944607,
        "Eccentricity": 0.0,
        "Inclination(deg)": 60.0,
        "Latitude(deg)": -46.20144221334434,
        "Longitude(deg)": 52.61244242748649,
        "Mean Anomaly(deg)": -56.15290781807254,
        "RAAN(deg)": 189.99369926290385,
        "Satellite Name": "Test1 854",
        "Satellite Number": 854,
        "Semi-Major Axis(m)": 6980739.136638005,
        "Time(s)": 150
    },
    {
        "Altitude(m)": 619636.1187269087,
        "Argument of Periapsis(deg)": 0.0016670313461274247,
        "Eccentricity": 0.0,
        "Inclination(deg)": 60.0,
        "Latitude(deg)": -45.77033614459039,
        "Longitude(deg)": 53.20783429001073,
        "Mean Anomaly(deg)": -55.53280167261072,
        "RAAN(deg)": 189.99327921376414,
        "Satellite Name": "Test1 854",
        "Satellite Number": 854,
        "Semi-Major Axis(m)": 6980739.136638005,
        "Time(s)": 160
    },
    {
        "Altitude(m)": 619457.8488445968,
        "Argument of Periapsis(deg)": 0.0017712208052603888,
        "Eccentricity": 0.0,
        "Inclination(deg)": 60.0,
        "Latitude(deg)": -45.33569155570036,
        "Longitude(deg)": 53.793472873409875,
        "Mean Anomaly(deg)": -54.91269552714886,
        "RAAN(deg)": 189.9928591646244,
        "Satellite Name": "Test1 854",
        "Satellite Number": 854,
        "Semi-Major Axis(m)": 6980739.136638005,
        "Time(s)": 170
    },
    {
        "Altitude(m)": 619277.8561451484,
        "Argument of Periapsis(deg)": 0.001875410264393353,
        "Eccentricity": 0.0,
        "Inclination(deg)": 60.0,
        "Latitude(deg)": -44.89761230068558,
        "Longitude(deg)": 54.369576200394235,
        "Mean Anomaly(deg)": -54.29258938168704,
        "RAAN(deg)": 189.99243911548464,
        "Satellite Name": "Test1 854",
        "Satellite Number": 854,
        "Semi-Major Axis(m)": 6980739.136638005,
        "Time(s)": 180
    },
    {
        "Altitude(m)": 619096.2101484317,
        "Argument of Periapsis(deg)": 0.0019795997235263173,
        "Eccentricity": 0.0,
        "Inclination(deg)": 60.0,
        "Latitude(deg)": -44.45619912808764,
        "Longitude(deg)": 54.936360718289095,
        "Mean Anomaly(deg)": -53.67248323622528,
        "RAAN(deg)": 189.99201906634488,
        "Satellite Name": "Test1 854",
        "Satellite Number": 854,
        "Semi-Major Axis(m)": 6980739.136638005,
        "Time(s)": 190
    }
]